[{"OBJECT_NAME":"STARLINK-5086","OBJECT_ID":"2022-177AN","EPOCH":"2026-03-09T22:00:01.999584","MEAN_MOTION":15.09023797,"ECCENTRICITY":0.00024157,"INCLINATION":43.0003,"RA_OF_ASC_NODE":118.8163,"ARG_OF_PERICENTER":260.4357,"MEAN_ANOMALY":63.0011,"EPHEMERIS_TYPE":0,"CLASSIFICATION_TYPE":"U","NORAD_CAT_ID":54856,"ELEMENT_SET_NO":999,"REV_AT_EPOCH":577,"BSTAR":0.0015660098,"MEAN_MOTION_DOT":0.00025074,"MEAN_MOTION_DDOT":0},{"OBJECT_NAME":"CZ-6A DEB","OBJECT_ID":"2022-151BX","EPOCH":"2026-03-09T18:04:18.424992","MEAN_MOTION":15.16566225,"ECCENTRICITY":0.00404449,"INCLINATION":98.6231,"RA_OF_ASC_NODE":169.9483,"ARG_OF_PERICENTER":104.1368,"MEAN_ANOMALY":256.4361,"EPHEMERIS_TYPE":0,"CLASSIFICATION_TYPE":"U","NORAD_CAT_ID":54328,"ELEMENT_SET_NO":999,"REV_AT_EPOCH":10563,"BSTAR":0.0050960293,"MEAN_MOTION_DOT":0.00102794,"MEAN_MOTION_DDOT":0}]
